ONEWEB-0282             
1 49000U 21060AK  23059.16464757  .00000021  00000+0  22073-4 0  9991
2 49000  87.8990 108.7374 0001545 104.8347 255.2955 13.16593780 82363
ONEWEB-0282             
1 49000U 21060AK  23059.54463283 -.00000088  00000+0 -26378-3 0  9992
2 49000  87.8989 108.6618 0001539 104.9643 255.1659 13.16593893 81098
ONEWEB-0282             
1 49000U 21060AK  23059.84862117 -.00000034  00000+0 -12322-3 0  9999
2 49000  87.8987 108.6012 0001563 104.2373 255.8932 13.16593500 81135
ONEWEB-0282             
1 49000U 21060AK  23060.53259429 -.00000036  00000+0 -12896-3 0  9991
2 49000  87.8988 108.4644 0001567 104.4373 255.6932 13.16593641 81225
ONEWEB-0282             
1 49000U 21060AK  23060.53259429 -.00000036  00000+0 -12896-3 0  9991
2 49000  87.8988 108.4644 0001567 104.4373 255.6932 13.16593641 82541
ONEWEB-0282             
1 49000U 21060AK  23061.59655248  .00000037  00000+0  62660-4 0  9991
2 49000  87.8987 108.2515 0001557 104.3026 255.8277 13.16593718 81366
ONEWEB-0282             
1 49000U 21060AK  23062.12853130  .00000064  00000+0  13312-3 0  9990
2 49000  87.8990 108.1451 0001548 103.9448 256.1855 13.16593994 81431
ONEWEB-0282             
1 49000U 21060AK  23062.12853130  .00000064  00000+0  13312-3 0  9990
2 49000  87.8990 108.1451 0001548 103.9448 256.1855 13.16593994 82757
ONEWEB-0282             
1 49000U 21060AK  23062.81250477  .00000084  00000+0  18664-3 0  9998
2 49000  87.8988 108.0085 0001520 101.8412 258.2890 13.16593684 81526
